GSAT0222 (PRN E33)      
1 43565U 18060B   22293.04395587 -.00000088  00000+0  00000+0 0  9992
2 43565  57.2162  17.8198 0003277 258.6655 101.3304  1.70476307 26430
GSAT0219 (PRN E36)      
1 43566U 18060C   22296.19742414 -.00000080  00000+0  00000+0 0  9999
2 43566  57.2177  17.7366 0003159 258.5174 101.4864  1.70476191 26463
GSAT0220 (PRN E13)      
1 43567U 18060D   22294.65787295 -.00000083  00000+0  00000+0 0  9998
2 43567  57.2170  17.7791 0003651 255.7289 104.2658  1.70476110 26421
BEIDOU-3 M9 (C23)       
1 43581U 18062A   22295.62067950 -.00000012  00000+0  00000+0 0  9995
2 43581  54.2444 227.7329 0004975 287.0738 277.6251  1.86231872 28792
BEIDOU-3 M10 (C24)      
1 43582U 18062B   22295.89789819 -.00000009  00000+0  00000+0 0  9996
2 43582  54.2441 227.7132 0005638 353.6773 128.8369  1.86232371 28802
BEIDOU-3 M11 (C25)      
1 43602U 18067A   22296.29537020 -.00000005  00000+0  00000+0 0  9990
2 43602  54.3273 226.3258 0007305   6.3881  63.7016  1.86231491 28301
BEIDOU-3 M12 (C26)      
1 43603U 18067B   22295.83137983 -.00000009  00000+0  00000+0 0  9998
2 43603  54.3243 226.3079 0004542 352.9828  36.3720  1.86231416 28317
BEIDOU-3 M13 (C32)      
1 43622U 18072A   22295.62694455  .00000079  00000+0  00000+0 0  9990
2 43622  55.5556 107.0829 0004072 286.1391 355.1069  1.86231613 27818
BEIDOU-3 M14 (C33)      
1 43623U 18072B   22295.61321399  .00000079  00000+0  00000+0 0  9994
2 43623  55.5573 107.0757 0002474 338.8275  23.4522  1.86231597 27829
BEIDOU-3 M15 (C34)      
1 43647U 18078A   22295.76855174 -.00000065  00000+0  10000-3 0  9996
2 43647  55.0722 346.2263 0005349 354.9764   7.1672  1.86233108 27332
BEIDOU-3 M16 (C35)      
1 43648U 18078B   22295.47564723 -.00000066  00000+0  00000+0 0  9998
2 43648  55.0699 346.2441 0002955   9.3253  63.9700  1.86232240 27347
BEIDOU-3 G1 (C59)       
1 43683U 18085A   22296.56433002 -.00000266  00000+0  00000+0 0  9993
2 43683   1.0445 147.0395 0004431  54.8310 173.3281  1.00271762 14682
COSMOS 2529 (757)       
1 43687U 18086A   22296.24930156  .00000002  00000+0  00000+0 0  9992
2 43687  64.3480 237.7913 0011096 266.0184 272.6154  2.13102091 30886
BEIDOU-3 M17 (C36)      
1 43706U 18093A   22295.51673085 -.00000012  00000+0  00000+0 0  9998
2 43706  54.3260 227.6322 0009734 282.5789  77.3066  1.86231977 26708
BEIDOU-3 M18 (C37)      
1 43707U 18093B   22295.61702211 -.00000011  00000+0  00000+0 0  9993
2 43707  54.3269 227.6182 0009007 304.0504 214.4150  1.86232230 26699
GPS BIII-1  (PRN 04)    
1 43873U 18109A   22295.74452793  .00000090  00000+0  00000+0 0  9992
2 43873  55.1113 144.8701 0021106 187.5349 125.1644  2.00555521 28328
BEIDOU-3 IGSO-1 (C38)   
1 44204U 19023A   22295.81977742 -.00000210  00000+0  00000+0 0  9996
2 44204  56.7508  51.6099 0024032 190.3384 204.0188  1.00271219 12993
BEIDOU-2 G8             
1 44231U 19027A   22296.59876197 -.00000235  00000+0  00000+0 0  9995
2 44231   1.1664  79.5557 0006323 123.0892 189.4212  1.00276050 12709
COSMOS 2534 (758)       
1 44299U 19030A   22295.65814359 -.00000001  00000+0  00000+0 0  9992
2 44299  64.4207 237.7082 0013478 284.7718 294.8042  2.13101819 26511
BEIDOU-3 IGSO-2 (C39)   
1 44337U 19035A   22295.59788301 -.00000096  00000+0  00000+0 0  9994
2 44337  55.1253 170.5939 0025499 189.7671   5.2664  1.00265385 12327
GPS BIII-2  (PRN 18)    
1 44506U 19056A   22295.70763771 -.00000081  00000+0  00000+0 0  9996
2 44506  55.7319  23.9959 0029215 182.9334   3.3856  2.00558831 23324
BEIDOU-3 M23 (C45)      
1 44542U 19061A   22295.45307565 -.00000013  00000+0  00000+0 0  9994
2 44542  54.5523 227.8012 0008925 340.7868  19.1734  1.86231569 20959
BEIDOU-3 M24 (C46)      
1 44543U 19061B   22295.36582429 -.00000013  00000+0  00000+0 0  9999
2 44543  54.5509 227.7725 0006373 324.7915 248.1369  1.86231818 20948
BEIDOU-3 IGSO-3         
1 44709U 19073A   22295.39979941 -.00000152  00000+0  10000-3 0  9997
2 44709  57.0592 295.0647 0027211 183.3178 176.3478  1.00270338 11069
BEIDOU-3 M21            
1 44793U 19078A   22295.30317767 -.00000067  00000+0  10000-3 0  9993
2 44793  54.9226 346.2502 0004912   8.8592 354.9634  1.86232267 19817
BEIDOU-3 M22            
1 44794U 19078B   22295.42688216 -.00000067  00000+0  00000+0 0  9992
2 44794  54.8967 346.2347 0002944 359.7809 358.8601  1.86232691 19805
COSMOS 2544 (759)       
1 44850U 19088A   22295.80153483  .00000106  00000+0  16595+1 0  9991
2 44850  64.9830 118.4188 0010653 251.5142  63.5049  2.13102229 22282
BEIDOU-3 M19            
1 44864U 19090A   22295.68808106  .00000080  00000+0  00000+0 0  9998
2 44864  55.4907 107.2852 0014860 268.7055  99.4147  1.86231793 19403
BEIDOU-3 M20            
1 44865U 19090B   22295.53342094  .00000080  00000+0  00000+0 0  9992
2 44865  55.4922 107.3221 0012866 284.8521  69.4237  1.86231773 19363
BEIDOU-3 G2             
1 45344U 20017A   22295.89007646 -.00000136  00000+0  00000+0 0  9999
2 45344   2.0085 358.6227 0003176 175.7449 257.3827  1.00273762  9892
COSMOS 2545 (760)       
1 45358U 20018A   22295.59986639 -.00000054  00000+0  00000+0 0  9999
2 45358  64.9070 358.9011 0010537 240.5322 129.0955  2.13102686 20242
BEIDOU-3 G3             
1 45807U 20040A   22295.85372690 -.00000348  00000+0  00000+0 0  9994
2 45807   1.1651 307.8510 0008563 339.5702 161.6116  1.00278941  8704
GPS BIII-3  (PRN 23)    
1 45854U 20041A   22295.48500507  .00000020  00000+0  00000+0 0  9992
2 45854  55.6227  81.2714 0027744 179.1332 144.8619  2.00569054 17280
GALAXY 30 (WAAS/PRN 135)
1 46114U 20056C   22295.39271038  .00000044  00000+0  00000+0 0  9998
2 46114   0.0208 250.9923 0002922 321.0726 195.1496  1.00272595  7917
GPS BIII-4  (PRN 14)    
1 46826U 20078A   22295.73085434 -.00000008  00000+0  00000+0 0  9994
2 46826  54.4902 264.9284 0023905 191.7312 286.5550  2.00565223 14764
GPS BIII-5  (PRN 11)    
1 48859U 21054A   22296.25600030 -.00000079  00000+0  00000+0 0  9998
2 48859  55.2412  25.9110 0008482 204.5856 117.9425  2.00566062 10013
